{"type": "FeatureCollection", "features": [{"type": "Feature", "properties": {"parcel_local_id": "TVM-BLK-001", "parent_ulpin_14": "32010110000001", "note": "stand-in block extent, not surveyed cadastre"}, "geometry": {"type": "Polygon", "coordinates": [[[76.943, 8.493], [76.944, 8.493], [76.944, 8.494], [76.943, 8.494], [76.943, 8.493]]]}}, {"type": "Feature", "properties": {"parcel_local_id": "TVM-BLK-002", "parent_ulpin_14": "32010110000002", "note": "stand-in block extent, not surveyed cadastre"}, "geometry": {"type": "Polygon", "coordinates": [[[76.943, 8.494], [76.944, 8.494], [76.944, 8.495000000000001], [76.943, 8.495000000000001], [76.943, 8.494]]]}}, {"type": "Feature", "properties": {"parcel_local_id": "TVM-BLK-003", "parent_ulpin_14": "32010110000003", "note": "stand-in block extent, not surveyed cadastre"}, "geometry": {"type": "Polygon", "coordinates": [[[76.943, 8.495000000000001], [76.944, 8.495000000000001], [76.944, 8.496], [76.943, 8.496], [76.943, 8.495000000000001]]]}}, {"type": "Feature", "properties": {"parcel_local_id": "TVM-BLK-004", "parent_ulpin_14": "32010110000004", "note": "stand-in block extent, not surveyed cadastre"}, "geometry": {"type": "Polygon", "coordinates": [[[76.943, 8.496], [76.944, 8.496], [76.944, 8.497], [76.943, 8.497], [76.943, 8.496]]]}}, {"type": "Feature", "properties": {"parcel_local_id": "TVM-BLK-005", "parent_ulpin_14": "32010110000005", "note": "stand-in block extent, not surveyed cadastre"}, "geometry": {"type": "Polygon", "coordinates": [[[76.943, 8.497], [76.944, 8.497], [76.944, 8.498000000000001], [76.943, 8.498000000000001], [76.943, 8.497]]]}}, {"type": "Feature", "properties": {"parcel_local_id": "TVM-BLK-006", "parent_ulpin_14": "32010110000006", "note": "stand-in block extent, not surveyed cadastre"}, "geometry": {"type": "Polygon", "coordinates": [[[76.943, 8.498000000000001], [76.944, 8.498000000000001], [76.944, 8.499], [76.943, 8.499], [76.943, 8.498000000000001]]]}}, {"type": "Feature", "properties": {"parcel_local_id": "TVM-BLK-007", "parent_ulpin_14": "32010110000007", "note": "stand-in block extent, not surveyed cadastre"}, "geometry": {"type": "Polygon", "coordinates": [[[76.944, 8.493], [76.945, 8.493], [76.945, 8.494], [76.944, 8.494], [76.944, 8.493]]]}}, {"type": "Feature", "properties": {"parcel_local_id": "TVM-BLK-008", "parent_ulpin_14": "32010110000008", "note": "stand-in block extent, not surveyed cadastre"}, "geometry": {"type": "Polygon", "coordinates": [[[76.944, 8.494], [76.945, 8.494], [76.945, 8.495000000000001], [76.944, 8.495000000000001], [76.944, 8.494]]]}}, {"type": "Feature", "properties": {"parcel_local_id": "TVM-BLK-009", "parent_ulpin_14": "32010110000009", "note": "stand-in block extent, not surveyed cadastre"}, "geometry": {"type": "Polygon", "coordinates": [[[76.944, 8.495000000000001], [76.945, 8.495000000000001], [76.945, 8.496], [76.944, 8.496], [76.944, 8.495000000000001]]]}}, {"type": "Feature", "properties": {"parcel_local_id": "TVM-BLK-010", "parent_ulpin_14": "32010110000010", "note": "stand-in block extent, not surveyed cadastre"}, "geometry": {"type": "Polygon", "coordinates": [[[76.944, 8.496], [76.945, 8.496], [76.945, 8.497], [76.944, 8.497], [76.944, 8.496]]]}}, {"type": "Feature", "properties": {"parcel_local_id": "TVM-BLK-011", "parent_ulpin_14": "32010110000011", "note": "stand-in block extent, not surveyed cadastre"}, "geometry": {"type": "Polygon", "coordinates": [[[76.944, 8.497], [76.945, 8.497], [76.945, 8.498000000000001], [76.944, 8.498000000000001], [76.944, 8.497]]]}}, {"type": "Feature", "properties": {"parcel_local_id": "TVM-BLK-012", "parent_ulpin_14": "32010110000012", "note": "stand-in block extent, not surveyed cadastre"}, "geometry": {"type": "Polygon", "coordinates": [[[76.944, 8.498000000000001], [76.945, 8.498000000000001], [76.945, 8.499], [76.944, 8.499], [76.944, 8.498000000000001]]]}}, {"type": "Feature", "properties": {"parcel_local_id": "TVM-BLK-013", "parent_ulpin_14": "32010110000013", "note": "stand-in block extent, not surveyed cadastre"}, "geometry": {"type": "Polygon", "coordinates": [[[76.945, 8.493], [76.946, 8.493], [76.946, 8.494], [76.945, 8.494], [76.945, 8.493]]]}}, {"type": "Feature", "properties": {"parcel_local_id": "TVM-BLK-014", "parent_ulpin_14": "32010110000014", "note": "stand-in block extent, not surveyed cadastre"}, "geometry": {"type": "Polygon", "coordinates": [[[76.945, 8.494], [76.946, 8.494], [76.946, 8.495000000000001], [76.945, 8.495000000000001], [76.945, 8.494]]]}}, {"type": "Feature", "properties": {"parcel_local_id": "TVM-BLK-015", "parent_ulpin_14": "32010110000015", "note": "stand-in block extent, not surveyed cadastre"}, "geometry": {"type": "Polygon", "coordinates": [[[76.945, 8.495000000000001], [76.946, 8.495000000000001], [76.946, 8.496], [76.945, 8.496], [76.945, 8.495000000000001]]]}}, {"type": "Feature", "properties": {"parcel_local_id": "TVM-BLK-016", "parent_ulpin_14": "32010110000016", "note": "stand-in block extent, not surveyed cadastre"}, "geometry": {"type": "Polygon", "coordinates": [[[76.945, 8.496], [76.946, 8.496], [76.946, 8.497], [76.945, 8.497], [76.945, 8.496]]]}}, {"type": "Feature", "properties": {"parcel_local_id": "TVM-BLK-017", "parent_ulpin_14": "32010110000017", "note": "stand-in block extent, not surveyed cadastre"}, "geometry": {"type": "Polygon", "coordinates": [[[76.945, 8.497], [76.946, 8.497], [76.946, 8.498000000000001], [76.945, 8.498000000000001], [76.945, 8.497]]]}}, {"type": "Feature", "properties": {"parcel_local_id": "TVM-BLK-018", "parent_ulpin_14": "32010110000018", "note": "stand-in block extent, not surveyed cadastre"}, "geometry": {"type": "Polygon", "coordinates": [[[76.945, 8.498000000000001], [76.946, 8.498000000000001], [76.946, 8.499], [76.945, 8.499], [76.945, 8.498000000000001]]]}}, {"type": "Feature", "properties": {"parcel_local_id": "TVM-BLK-019", "parent_ulpin_14": "32010110000019", "note": "stand-in block extent, not surveyed cadastre"}, "geometry": {"type": "Polygon", "coordinates": [[[76.946, 8.493], [76.947, 8.493], [76.947, 8.494], [76.946, 8.494], [76.946, 8.493]]]}}, {"type": "Feature", "properties": {"parcel_local_id": "TVM-BLK-020", "parent_ulpin_14": "32010110000020", "note": "stand-in block extent, not surveyed cadastre"}, "geometry": {"type": "Polygon", "coordinates": [[[76.946, 8.494], [76.947, 8.494], [76.947, 8.495000000000001], [76.946, 8.495000000000001], [76.946, 8.494]]]}}, {"type": "Feature", "properties": {"parcel_local_id": "TVM-BLK-021", "parent_ulpin_14": "32010110000021", "note": "stand-in block extent, not surveyed cadastre"}, "geometry": {"type": "Polygon", "coordinates": [[[76.946, 8.495000000000001], [76.947, 8.495000000000001], [76.947, 8.496], [76.946, 8.496], [76.946, 8.495000000000001]]]}}, {"type": "Feature", "properties": {"parcel_local_id": "TVM-BLK-022", "parent_ulpin_14": "32010110000022", "note": "stand-in block extent, not surveyed cadastre"}, "geometry": {"type": "Polygon", "coordinates": [[[76.946, 8.496], [76.947, 8.496], [76.947, 8.497], [76.946, 8.497], [76.946, 8.496]]]}}, {"type": "Feature", "properties": {"parcel_local_id": "TVM-BLK-023", "parent_ulpin_14": "32010110000023", "note": "stand-in block extent, not surveyed cadastre"}, "geometry": {"type": "Polygon", "coordinates": [[[76.946, 8.497], [76.947, 8.497], [76.947, 8.498000000000001], [76.946, 8.498000000000001], [76.946, 8.497]]]}}, {"type": "Feature", "properties": {"parcel_local_id": "TVM-BLK-024", "parent_ulpin_14": "32010110000024", "note": "stand-in block extent, not surveyed cadastre"}, "geometry": {"type": "Polygon", "coordinates": [[[76.946, 8.498000000000001], [76.947, 8.498000000000001], [76.947, 8.499], [76.946, 8.499], [76.946, 8.498000000000001]]]}}, {"type": "Feature", "properties": {"parcel_local_id": "TVM-BLK-025", "parent_ulpin_14": "32010110000025", "note": "stand-in block extent, not surveyed cadastre"}, "geometry": {"type": "Polygon", "coordinates": [[[76.947, 8.493], [76.948, 8.493], [76.948, 8.494], [76.947, 8.494], [76.947, 8.493]]]}}, {"type": "Feature", "properties": {"parcel_local_id": "TVM-BLK-026", "parent_ulpin_14": "32010110000026", "note": "stand-in block extent, not surveyed cadastre"}, "geometry": {"type": "Polygon", "coordinates": [[[76.947, 8.494], [76.948, 8.494], [76.948, 8.495000000000001], [76.947, 8.495000000000001], [76.947, 8.494]]]}}, {"type": "Feature", "properties": {"parcel_local_id": "TVM-BLK-027", "parent_ulpin_14": "32010110000027", "note": "stand-in block extent, not surveyed cadastre"}, "geometry": {"type": "Polygon", "coordinates": [[[76.947, 8.495000000000001], [76.948, 8.495000000000001], [76.948, 8.496], [76.947, 8.496], [76.947, 8.495000000000001]]]}}, {"type": "Feature", "properties": {"parcel_local_id": "TVM-BLK-028", "parent_ulpin_14": "32010110000028", "note": "stand-in block extent, not surveyed cadastre"}, "geometry": {"type": "Polygon", "coordinates": [[[76.947, 8.496], [76.948, 8.496], [76.948, 8.497], [76.947, 8.497], [76.947, 8.496]]]}}, {"type": "Feature", "properties": {"parcel_local_id": "TVM-BLK-029", "parent_ulpin_14": "32010110000029", "note": "stand-in block extent, not surveyed cadastre"}, "geometry": {"type": "Polygon", "coordinates": [[[76.947, 8.497], [76.948, 8.497], [76.948, 8.498000000000001], [76.947, 8.498000000000001], [76.947, 8.497]]]}}, {"type": "Feature", "properties": {"parcel_local_id": "TVM-BLK-030", "parent_ulpin_14": "32010110000030", "note": "stand-in block extent, not surveyed cadastre"}, "geometry": {"type": "Polygon", "coordinates": [[[76.947, 8.498000000000001], [76.948, 8.498000000000001], [76.948, 8.499], [76.947, 8.499], [76.947, 8.498000000000001]]]}}, {"type": "Feature", "properties": {"parcel_local_id": "TVM-BLK-031", "parent_ulpin_14": "32010110000031", "note": "stand-in block extent, not surveyed cadastre"}, "geometry": {"type": "Polygon", "coordinates": [[[76.948, 8.493], [76.949, 8.493], [76.949, 8.494], [76.948, 8.494], [76.948, 8.493]]]}}, {"type": "Feature", "properties": {"parcel_local_id": "TVM-BLK-032", "parent_ulpin_14": "32010110000032", "note": "stand-in block extent, not surveyed cadastre"}, "geometry": {"type": "Polygon", "coordinates": [[[76.948, 8.494], [76.949, 8.494], [76.949, 8.495000000000001], [76.948, 8.495000000000001], [76.948, 8.494]]]}}, {"type": "Feature", "properties": {"parcel_local_id": "TVM-BLK-033", "parent_ulpin_14": "32010110000033", "note": "stand-in block extent, not surveyed cadastre"}, "geometry": {"type": "Polygon", "coordinates": [[[76.948, 8.495000000000001], [76.949, 8.495000000000001], [76.949, 8.496], [76.948, 8.496], [76.948, 8.495000000000001]]]}}, {"type": "Feature", "properties": {"parcel_local_id": "TVM-BLK-034", "parent_ulpin_14": "32010110000034", "note": "stand-in block extent, not surveyed cadastre"}, "geometry": {"type": "Polygon", "coordinates": [[[76.948, 8.496], [76.949, 8.496], [76.949, 8.497], [76.948, 8.497], [76.948, 8.496]]]}}, {"type": "Feature", "properties": {"parcel_local_id": "TVM-BLK-035", "parent_ulpin_14": "32010110000035", "note": "stand-in block extent, not surveyed cadastre"}, "geometry": {"type": "Polygon", "coordinates": [[[76.948, 8.497], [76.949, 8.497], [76.949, 8.498000000000001], [76.948, 8.498000000000001], [76.948, 8.497]]]}}, {"type": "Feature", "properties": {"parcel_local_id": "TVM-BLK-036", "parent_ulpin_14": "32010110000036", "note": "stand-in block extent, not surveyed cadastre"}, "geometry": {"type": "Polygon", "coordinates": [[[76.948, 8.498000000000001], [76.949, 8.498000000000001], [76.949, 8.499], [76.948, 8.499], [76.948, 8.498000000000001]]]}}]}